NORAD_CAT_ID,OBJECT_NAME,OBJECT_TYPE,EPOCH,MEAN_MOTION,ECCENTRICITY,INCLINATION,RA_OF_ASC_NODE,ARG_OF_PERICENTER,MEAN_ANOMALY,BSTAR,MEAN_MOTION_DOT,MEAN_MOTION_DDOT,TLE_LINE0,TLE_LINE1,TLE_LINE2,SEMIMAJOR_AXIS,PERIOD,APOGEE,PERIGEE,DECAYED
53574.0,STARLINK-4559,PAYLOAD,2022-09-10 20:00:01,15.73187777,0.0002045999999999,53.2162,45.6134,29.7983,110.4316,-0.00014239,-0.00020547,0.0,0 STARLINK-4559,1 53574U 22101AZ  22253.83334491 -.00020547  00000-0 -14239-3 0  9991,2 53574  53.2162  45.6134 0002046  29.7983 110.4316 15.73187777  3493,6727.93,91.534,351.172,348.418,0.0
53574.0,STARLINK-4559,PAYLOAD,2022-09-10 22:00:00,15.73188218,0.0002056999999999,53.2156,45.2016,29.5202,222.9596,0.00011606,0.0001569,0.0,0 STARLINK-4559,1 53574U 22101AZ  22253.91667824  .00015690  00000-0  11606-3 0  9995,2 53574  53.2156  45.2016 0002057  29.5202 222.9596 15.73188218  1303,6727.929,91.534,351.17800000000005,348.41,0.0
53574.0,STARLINK-4559,PAYLOAD,2022-09-11 04:00:00,15.73182619,0.0001925,53.2159,43.9629,34.4437,194.7289,0.00036797,0.00051301,0.0,0 STARLINK-4559,1 53574U 22101AZ  22254.16667824  .00051301  00000-0  36797-3 0  9990,2 53574  53.2159  43.9629 0001925  34.4437 194.7289 15.73182619  3541,6727.945,91.534,351.105,348.515,0.0
53574.0,STARLINK-4559,PAYLOAD,2022-09-11 14:00:01,15.7329047,0.0001943999999999,53.2161,41.9017,31.5752,38.7122,-0.0007082,-0.00099239,0.0,0 STARLINK-4559,1 53574U 22101AZ  22254.58334491 -.00099239  00000-0 -70820-3 0  9996,2 53574  53.2161  41.9017 0001944  31.5752  38.7122 15.73290470  1302,6727.637,91.528,350.81,348.194,0.0
53574.0,STARLINK-4559,PAYLOAD,2022-09-11 20:00:01,15.73205696,0.0002091,53.2164,40.6657,28.045,19.0044,7.4565e-05,9.859e-05,0.0,0 STARLINK-4559,1 53574U 22101AZ  22254.83334491  .00009859  00000-0  74565-4 0  9992,2 53574  53.2164  40.6657 0002091  28.0450  19.0044 15.73205696  3652,6727.879,91.533,351.151,348.337,0.0
53574.0,STARLINK-4559,PAYLOAD,2022-09-11 22:00:00,15.73195007,0.0002121999999999,53.2162,40.2531,26.3072,132.9808,0.0002581,0.0003575,0.0,0 STARLINK-4559,1 53574U 22101AZ  22254.91667824  .00035750  00000-0  25810-3 0  9997,2 53574  53.2162  40.2531 0002122  26.3072 132.9808 15.73195007  1300,6727.909000000002,91.533,351.202,348.347,0.0
53574.0,STARLINK-4559,PAYLOAD,2022-09-12 12:00:00,15.73213199,0.0001955,53.2168,37.3649,25.737,199.1873,0.00023559,0.00032591,0.0,0 STARLINK-4559,1 53574U 22101AZ  22255.50001157  .00032591  00000-0  23559-3 0  9992,2 53574  53.2168  37.3649 0001955  25.7370 199.1873 15.73213199  1300,6727.858,91.532,351.038,348.407,0.0
53574.0,STARLINK-4559,PAYLOAD,2022-09-12 20:00:01,15.73195416,0.0002237,53.2165,35.7171,20.8576,293.0999,0.00037353,0.00052121,0.0,0 STARLINK-4559,1 53574U 22101AZ  22255.83335648  .00052121  00000-0  37353-3 0  9991,2 53574  53.2165  35.7171 0002237  20.8576 293.0999 15.73195416  3808,6727.908,91.533,351.278,348.26800000000014,0.0
53574.0,STARLINK-4559,PAYLOAD,2022-09-12 22:00:00,15.73201026,0.0002234999999999,53.2161,35.3043,19.5701,46.5572,0.00035443,0.0004942,0.0,0 STARLINK-4559,1 53574U 22101AZ  22255.91667824  .00049420  00000-0  35443-3 0  9990,2 53574  53.2161  35.3043 0002235  19.5701  46.5572 15.73201026  1307,6727.892,91.533,351.261,348.254,0.0
53574.0,STARLINK-4559,PAYLOAD,2022-09-13 06:00:00,15.73205698,0.0002096,53.2161,33.6529,26.9926,128.0941,1.085e-05,9.02e-06,0.0,0 STARLINK-4559,1 53574U 22101AZ  22256.25001157  .00000902  00000-0  10850-4 0  9997,2 53574  53.2161  33.6529 0002096  26.9926 128.0941 15.73205698  3872,6727.879,91.533,351.154,348.334,0.0
53574.0,STARLINK-4559,PAYLOAD,2022-09-13 14:00:01,15.73187736,0.0002339,53.2165,32.0049,28.9569,215.0704,0.00037077,0.00051712,0.0,0 STARLINK-4559,1 53574U 22101AZ  22256.58334491  .00051712  00000-0  37077-3 0  9997,2 53574  53.2165  32.0049 0002339  28.9569 215.0704 15.73187736  1303,6727.93,91.534,351.369,348.221,0.0
53574.0,STARLINK-4559,PAYLOAD,2022-09-13 22:00:00,15.73239695,0.0002375,53.2166,30.3561,20.9932,311.9182,-0.00074275,-0.00103778,0.0,0 STARLINK-4559,1 53574U 22101AZ  22256.91667824 -.00103778  00000-0 -74275-3 0  9996,2 53574  53.2166  30.3561 0002375  20.9932 311.9182 15.73239695  1308,6727.781999999997,91.531,351.245,348.0490000000001,0.0
53574.0,STARLINK-4559,PAYLOAD,2022-09-14 04:00:00,15.73152156,0.0002197,53.217,29.1173,19.5042,290.1419,0.00019631,0.00026964,0.0,0 STARLINK-4559,1 53574U 22101AZ  22257.16667824  .00026964  00000-0  19631-3 0  9998,2 53574  53.2170  29.1173 0002197  19.5042 290.1419 15.73152156  4014,6728.031999999997,91.536,351.375,348.418,0.0
53574.0,STARLINK-4559,PAYLOAD,2022-09-14 14:00:01,15.731822199999998,0.0002403,53.2168,27.0567,17.7768,132.9486,0.00025112,0.00034744,0.0,0 STARLINK-4559,1 53574U 22101AZ  22257.58334491  .00034744  00000-0  25112-3 0  9991,2 53574  53.2168  27.0567 0002403  17.7768 132.9486 15.73182220  1301,6727.946,91.534,351.42800000000005,348.194,0.0
53574.0,STARLINK-4559,PAYLOAD,2022-09-14 22:00:00,15.73235115,0.0002499,53.2162,25.4076,13.8233,225.8208,-0.00034101,-0.00048286,0.0,0 STARLINK-4559,1 53574U 22101AZ  22257.91667824 -.00048286  00000-0 -34101-3 0  9993,2 53574  53.2162  25.4076 0002499  13.8233 225.8208 15.73235115  1307,6727.795,91.531,351.341,347.97900000000016,0.0
53574.0,STARLINK-4559,PAYLOAD,2022-09-15 14:00:01,15.73227184,0.0002521,53.2166,22.1086,16.6034,40.9573,4.310100000000001e-05,5.438e-05,0.0,0 STARLINK-4559,1 53574U 22101AZ  22258.58334491  .00005438  00000-0  43101-4 0  9999,2 53574  53.2166  22.1086 0002521  16.6034  40.9573 15.73227184  1300,6727.818,91.532,351.379,347.987,0.0
53574.0,STARLINK-4559,PAYLOAD,2022-09-15 22:00:00,15.73250864,0.0002665,53.2166,20.4591,14.8593,131.6567,-0.00043965,-0.00062017,0.0,0 STARLINK-4559,1 53574U 22101AZ  22258.91667824 -.00062017  00000-0 -43965-3 0  9990,2 53574  53.2166  20.4591 0002665  14.8593 131.6567 15.73250864  4294,6727.75,91.53,351.408,347.82199999999995,0.0
53574.0,STARLINK-4559,PAYLOAD,2022-09-16 14:00:01,15.73209334,0.0002731,53.2168,17.1599,14.3799,310.0244,-0.00068348,-0.00095522,0.0,0 STARLINK-4559,1 53574U 22101AZ  22259.58334491 -.00095522  00000-0 -68348-3 0  9994,2 53574  53.2168  17.1599 0002731  14.3799 310.0244 15.73209334  1304,6727.869000000002,91.533,351.571,347.896,0.0
53574.0,STARLINK-4559,PAYLOAD,2022-09-16 22:00:00,15.73255038,0.0002893,53.2162,15.508,18.1149,35.2515,-0.00089118,-0.00124191,0.0,0 STARLINK-4559,1 53574U 22101AZ  22259.91667824 -.00124191  00000-0 -89118-3 0  9993,2 53574  53.2162  15.5080 0002893  18.1149  35.2515 15.73255038  4453,6727.738,91.53,351.55,347.657,0.0
53574.0,STARLINK-4559,PAYLOAD,2022-09-17 06:00:00,15.73206473,0.0002665,53.2164,13.8591,20.5597,121.747,-8.1661e-05,-0.00012072,0.0,0 STARLINK-4559,1 53574U 22101AZ  22260.25001157 -.00012072  00000-0 -81661-4 0  9993,2 53574  53.2164  13.8591 0002665  20.5597 121.7470 15.73206473  4500,6727.877,91.533,351.535,347.949,0.0
53574.0,STARLINK-4559,PAYLOAD,2022-09-17 14:00:01,15.7320712,0.0002931,53.2165,12.2116,20.5852,210.657,-0.00042014,-0.00059206,0.0,0 STARLINK-4559,1 53574U 22101AZ  22260.58334491 -.00059206  00000-0 -42014-3 0  9997,2 53574  53.2165  12.2116 0002931  20.5852 210.6570 15.73207120  1301,6727.875,91.533,351.712,347.76800000000014,0.0
53574.0,STARLINK-4559,PAYLOAD,2022-09-17 22:00:00,15.73171966,0.0002976999999999,53.2167,10.5617,16.6304,303.5203,8.5755e-05,0.00011417,0.0,0 STARLINK-4559,1 53574U 22101AZ  22260.91667824  .00011417  00000-0  85755-4 0  9993,2 53574  53.2167  10.5617 0002977  16.6304 303.5203 15.73171966  1301,6727.975,91.535,351.843,347.837,0.0
53574.0,STARLINK-4559,PAYLOAD,2022-09-18 14:00:01,15.73256922,0.0003117,53.2169,7.2629,17.7879,120.2524,-0.0002460999999999,-0.00035112,0.0,0 STARLINK-4559,1 53574U 22101AZ  22261.58335648 -.00035112  00000-0 -24610-3 0  9995,2 53574  53.2169   7.2629 0003117  17.7879 120.2524 15.73256922  4719,6727.733,91.53,351.695,347.501,0.0
53574.0,STARLINK-4559,PAYLOAD,2022-09-18 22:00:00,15.732434,0.0003072,53.2165,5.6128,12.4723,214.4857,-0.00067023,-0.00093845,0.0,0 STARLINK-4559,1 53574U 22101AZ  22261.91667824 -.00093845  00000-0 -67023-3 0  9998,2 53574  53.2165   5.6128 0003072  12.4723 214.4857 15.73243400  1305,6727.771,91.531,351.70300000000015,347.57,0.0
53574.0,STARLINK-4559,PAYLOAD,2022-09-19 14:00:01,15.73209634,0.0003129999999999,53.2167,2.3146,9.6559,35.1792,-0.00014576,-0.00021042,0.0,0 STARLINK-4559,1 53574U 22101AZ  22262.58334491 -.00021042  00000-0 -14576-3 0  9998,2 53574  53.2167   2.3146 0003130   9.6559  35.1792 15.73209634  1308,6727.868,91.533,351.839,347.62699999999984,0.0
53574.0,STARLINK-4559,PAYLOAD,2022-09-19 22:00:00,15.73197294,0.0003205,53.2169,0.6643,10.1878,123.5598,-0.00035371,-0.00049979,0.0,0 STARLINK-4559,1 53574U 22101AZ  22262.91667824 -.00049979  00000-0 -35371-3 0  9999,2 53574  53.2169   0.6643 0003205  10.1878 123.5598 15.73197294  4922,6727.903,91.533,351.9240000000001,347.612,0.0
53574.0,STARLINK-4559,PAYLOAD,2022-09-20 06:00:00,15.73176518,0.0003081,53.2173,359.0133,13.9458,208.7148,0.00059314,0.00083382,0.0,0 STARLINK-4559,1 53574U 22101AZ  22263.25001157  .00083382  00000-0  59314-3 0  9995,2 53574  53.2173 359.0133 0003081  13.9458 208.7148 15.73176518  4977,6727.962,91.535,351.9,347.754,0.0
53574.0,STARLINK-4559,PAYLOAD,2022-09-20 14:00:01,15.73230196,0.0003384,53.2173,357.3659,12.433,299.1651,-0.00031803,-0.00045091,0.0,0 STARLINK-4559,1 53574U 22101AZ  22263.58334491 -.00045091  00000-0 -31803-3 0  9991,2 53574  53.2173 357.3659 0003384  12.4330 299.1651 15.73230196  1300,6727.809,91.531,351.951,347.397,0.0
53574.0,STARLINK-4559,PAYLOAD,2022-09-20 22:00:01,15.73245759,0.0003333,53.2169,355.7156,8.0088,32.5788,-0.0007226,-0.0010106,0.0,0 STARLINK-4559,1 53574U 22101AZ  22263.91668981 -.00101060  00000-0 -72260-3 0  9993,2 53574  53.2169 355.7156 0003333   8.0088  32.5788 15.73245759  1305,6727.765,91.531,351.872,347.38699999999994,0.0
